{
  "links" : {
    "next" : "https://api.nasa.gov/neo/rest/v1/feed?start_date=1997-06-23&end_date=1997-06-23&detailed=true&api_key=t0TVs3DtDT2H8Oy2Zy8m2eVrNsAVKAexjcZXUckd",
    "prev" : "https://api.nasa.gov/neo/rest/v1/feed?start_date=1997-06-21&end_date=1997-06-21&detailed=true&api_key=t0TVs3DtDT2H8Oy2Zy8m2eVrNsAVKAexjcZXUckd",
    "self" : "https://api.nasa.gov/neo/rest/v1/feed?start_date=1997-06-22&end_date=1997-06-22&detailed=true&api_key=t0TVs3DtDT2H8Oy2Zy8m2eVrNsAVKAexjcZXUckd"
  },
  "element_count" : 5,
  "near_earth_objects" : {
    "1997-06-22" : [ {
      "links" : {
        "self" : "https://api.nasa.gov/neo/rest/v1/neo/3764807?api_key=t0TVs3DtDT2H8Oy2Zy8m2eVrNsAVKAexjcZXUckd"
      },
      "neo_reference_id" : "3764807",
      "name" : "(2016 WT7)",
      "nasa_jpl_url" : "http://ssd.jpl.nasa.gov/sbdb.cgi?sstr=3764807",
      "absolute_magnitude_h" : 25.9,
      "estimated_diameter" : {
        "kilometers" : {
          "estimated_diameter_min" : 0.0175612318,
          "estimated_diameter_max" : 0.0392681082
        },
        "meters" : {
          "estimated_diameter_min" : 17.561231848,
          "estimated_diameter_max" : 39.2681081809
        },
        "miles" : {
          "estimated_diameter_min" : 0.0109120402,
          "estimated_diameter_max" : 0.0244000636
        },
        "feet" : {
          "estimated_diameter_min" : 57.6155918963,
          "estimated_diameter_max" : 128.8323800441
        }
      },
      "is_potentially_hazardous_asteroid" : false,
      "close_approach_data" : [ {
        "close_approach_date" : "1997-06-22",
        "epoch_date_close_approach" : 866962800000,
        "relative_velocity" : {
          "kilometers_per_second" : "4.3879155028",
          "kilometers_per_hour" : "15796.4958099732",
          "miles_per_hour" : "9815.328188147"
        },
        "miss_distance" : {
          "astronomical" : "0.0975588053",
          "lunar" : "37.9503746033",
          "kilometers" : "14594589",
          "miles" : "9068657"
        },
        "orbiting_body" : "Earth"
      } ],
      "orbital_data" : {
        "orbit_id" : "9",
        "orbit_determination_date" : "2017-04-06 08:21:56",
        "orbit_uncertainty" : "5",
        "minimum_orbit_intersection" : ".0170586",
        "jupiter_tisserand_invariant" : "5.884",
        "epoch_osculation" : "2458000.5",
        "eccentricity" : ".04490939948984188",
        "semi_major_axis" : "1.041554382399108",
        "inclination" : "6.232673411794774",
        "ascending_node_longitude" : "243.1691312214321",
        "orbital_period" : "388.2588400607675",
        "perihelion_distance" : ".9947788005495508",
        "perihelion_argument" : "141.2285242824747",
        "aphelion_distance" : "1.088329964248665",
        "perihelion_time" : "2458068.664217249683",
        "mean_anomaly" : "296.7970135437354",
        "mean_motion" : ".9272164928521792",
        "equinox" : "J2000"
      }
    }, {
      "links" : {
        "self" : "https://api.nasa.gov/neo/rest/v1/neo/2490684?api_key=t0TVs3DtDT2H8Oy2Zy8m2eVrNsAVKAexjcZXUckd"
      },
      "neo_reference_id" : "2490684",
      "name" : "490684 (2010 LL34)",
      "nasa_jpl_url" : "http://ssd.jpl.nasa.gov/sbdb.cgi?sstr=2490684",
      "absolute_magnitude_h" : 19.4,
      "estimated_diameter" : {
        "kilometers" : {
          "estimated_diameter_min" : 0.3503926411,
          "estimated_diameter_max" : 0.7835017643
        },
        "meters" : {
          "estimated_diameter_min" : 350.3926411083,
          "estimated_diameter_max" : 783.5017643338
        },
        "miles" : {
          "estimated_diameter_min" : 0.2177238258,
          "estimated_diameter_max" : 0.4868452748
        },
        "feet" : {
          "estimated_diameter_min" : 1149.5821926537,
          "estimated_diameter_max" : 2570.543928497
        }
      },
      "is_potentially_hazardous_asteroid" : false,
      "close_approach_data" : [ {
        "close_approach_date" : "1997-06-22",
        "epoch_date_close_approach" : 866962800000,
        "relative_velocity" : {
          "kilometers_per_second" : "32.3300071765",
          "kilometers_per_hour" : "116388.0258355307",
          "miles_per_hour" : "72318.993053194"
        },
        "miss_distance" : {
          "astronomical" : "0.4409026317",
          "lunar" : "171.5111236572",
          "kilometers" : "65958092",
          "miles" : "40984460"
        },
        "orbiting_body" : "Earth"
      } ],
      "orbital_data" : {
        "orbit_id" : "34",
        "orbit_determination_date" : "2017-07-15 06:19:40",
        "orbit_uncertainty" : "0",
        "minimum_orbit_intersection" : ".0612238",
        "jupiter_tisserand_invariant" : "4.826",
        "epoch_osculation" : "2458000.5",
        "eccentricity" : ".5547433819690687",
        "semi_major_axis" : "1.280170488133454",
        "inclination" : "22.71757623517739",
        "ascending_node_longitude" : "120.3006844146116",
        "orbital_period" : "529.054172139068",
        "perihelion_distance" : ".5700043820493083",
        "perihelion_argument" : "270.9613795238113",
        "aphelion_distance" : "1.9903365942176",
        "perihelion_time" : "2458075.587253944804",
        "mean_anomaly" : "308.9061558463168",
        "mean_motion" : ".6804596182361641",
        "equinox" : "J2000"
      }
    } ]
  }
}